API VERSION: 1.2
API SOURCE: NASA/JPL Horizons API

*******************************************************************************
 Revised: April 22, 2021              Neptune                               899
 
 PHYSICAL DATA (update 2021-May-03):
  Mass x10^24 (kg)      = 102.409         Density (g/cm^3)       =  1.638
  Equat. radius (1 bar) = 24766+-15 km    Volume, 10^10 km^3     = 6254     
  Vol. mean radius (km) = 24624+-21       Polar radius (km)      = 24342+-30
  Geometric Albedo      = 0.41            Flattening             =  0.0171
  Sid. rot. period (III)= 16.11+-0.01 hr  Sid. rot. rate (rad/s) =  0.000108338 
  Mean solar day, h     =~16.11 h         
  GM (km^3/s^2)         = 6835099.97      GM 1-sigma (km^3/s^2)  = +-10 
  Equ. grav, ge (m/s^2) = 11.15           Pol. grav, gp (m/s^2)  = 11.41+-0.03
  Visual magnitude V(1,0)= -6.87
  Vis. mag. (opposition)=  +7.84          Obliquity to orbit     = 28.32 deg
  Sidereal orbit period = 164.788501027 y Sidereal orbit period  = 60189 d
  Mean daily motion     = 0.006020076dg/d Mean orbit velocity    =  5.43 km/s 
  Atmos. temp. (1 bar)  =  72+-2 K        Escape speed (1 bar)  =  23.5 km/s     
  Aroche(ice)/Rp        =  2.98           Hill's sphere rad., Rp = 4700
                                 Perihelion  Aphelion    Mean
  Solar Constant (W/m^2)         1.54        1.49        1.51
  Maximum Planetary IR (W/m^2)   0.52        0.52        0.52
  Minimum Planetary IR (W/m^2)   0.52        0.52        0.52
*******************************************************************************


*******************************************************************************
Ephemeris / API_USER Thu Feb 19 13:07:02 2026 Pasadena, USA      / Horizons
*******************************************************************************
Target body name: Neptune (899)                   {source: nep097_merged}
Center body name: Earth (399)                     {source: nep097_merged}
Center-site name: BODY CENTER
*******************************************************************************
Start time      : A.D. 2066-Feb-04 12:30:00.0000 TDB
Stop  time      : A.D. 2066-Feb-07 12:30:00.0000 TDB
Step-size       : 60 minutes
*******************************************************************************
Center geodetic : 0.0, 0.0, 0.0                   {E-lon(deg),Lat(deg),Alt(km)}
Center cylindric: 0.0, 0.0, 0.0                   {E-lon(deg),Dxy(km),Dz(km)}
Center radii    : 6378.137, 6378.137, 6356.752 km {Equator_a, b, pole_c}
Output units    : AU-D
Calendar mode   : Mixed Julian/Gregorian
Output type     : GEOMETRIC cartesian states
Output format   : 3 (position, velocity, LT, range, range-rate)
EOP file        : eop.260218.p260517
EOP coverage    : DATA-BASED 1962-JAN-20 TO 2026-FEB-18. PREDICTS-> 2026-MAY-16
Reference frame : Ecliptic of J2000.0
*******************************************************************************
JDTDB
   X     Y     Z
   VX    VY    VZ
   LT    RG    RR
*******************************************************************************
$$SOE
2475688.895833333 = A.D. 2066-Feb-07 09:30:00.0000 TDB 
 X = 7.284485865952912E-01 Y = 2.921988145131878E+01 Z =-6.151941030390679E-01
 VX= 8.634569961473952E-03 VY= 1.286275211722861E-02 VZ= 6.993437334208790E-05
 LT= 1.688497822276518E-01 RG= 2.923543352093226E+01 RR= 1.306958245718359E-02
2475688.937500000 = A.D. 2066-Feb-07 10:30:00.0000 TDB 
 X = 7.288081647462096E-01 Y = 2.922041757477959E+01 Z =-6.151911892468407E-01
 VX= 8.625180398807820E-03 VY= 1.287117272180265E-02 VZ= 6.992753068770051E-05
 LT= 1.688529283747279E-01 RG= 2.923597825941208E+01 RR= 1.307786321743454E-02
2475688.979166667 = A.D. 2066-Feb-07 11:30:00.0000 TDB 
 X = 7.291673515547110E-01 Y = 2.922095404893865E+01 Z =-6.151882757550269E-01
 VX= 8.615785521699353E-03 VY= 1.287958562674963E-02 VZ= 6.991995496064017E-05
 LT= 1.688560765135597E-01 RG= 2.923652334275373E+01 RR= 1.308613581913238E-02
2475689.020833333 = A.D. 2066-Feb-07 12:30:00.0000 TDB 
 X = 7.295261467989264E-01 Y = 2.922149087347444E+01 Z =-6.151853625939979E-01
 VX= 8.606385310155963E-03 VY= 1.288799080091155E-02 VZ= 6.991165443378179E-05
 LT= 1.688592266421802E-01 RG= 2.923706877061658E+01 RR= 1.309440023063188E-02
